#dP2024  3 23  0  0  0.00000000      97 __u+U IGS20 FIT  IAC
## 2306 518400.00000000   900.00000000 60392 0.0000000000000
+  120   C06C07C08C09C10C11C12C13C14C16C19C20C21C22C23C24C25
+        C26C27C28C29C30C32C33C34C35C36C37C38C39C40C41C42C43
+        C44C45C46E02E03E04E05E07E08E09E10E11E12E13E14E15E18
+        E19E21E24E25E26E27E30E31E33E34E36G01G02G03G04G05G06
+        G07G08G09G10G11G12G13G14G15G16G17G18G19G20G21G22G23
+        G24G25G26G27G28G29G30G31G32J02J03J04R01R02R03R04R05
+        R07R08R09R11R12R13R14R15R16R17R18R19R20R21R22R24R25
+        R26  0  0  0  0  0  0  0  0  0  0  0  0  0  0  0  0
++         7  7  7  8  7  7  7  7  7  7  6  6  6  6  6  6  5
++         6  6  6  6  6  6  6  6  6  6  6  6  7  6  6  6  6
++         6  6  6  4  4  4  4  4  4  4  4  4  4  4  5  4  4
++         4  4  5  4  4  4  4  4  4  4  4  4  4  3  3  3  3
++         4  3  3  3  4  3  3  4  4  3  4  4  4  3  4  3  3
++         3  3  3  3  4  3  4  3  3 11 11 11  8  7  7  7  7
++         7  7  6  6  7  8  7  7  7  6  6  7  7  6  7  7  7
++         8  0  0  0  0  0  0  0  0  0  0  0  0  0  0  0  0
%c M  cc GPS ccc cccc cccc cccc cccc ccccc ccccc ccccc ccccc
%c cc cc ccc ccc cccc cccc cccc cccc ccccc ccccc ccccc ccccc
%f  1.2500000  1.025000000  0.00000000000  0.000000000000000
%f  0.0000000  0.000000000  0.00000000000  0.000000000000000
%i    0    0    0    0      0      0      0      0         0
%i    0    0    0    0      0      0      0      0         0
/* INFORMATION & ANALYSIS CENTER (IAC)            FINAL DATA
/* S/V CLOCKS ARE ALIGNED TO GNSS TIME                      
/* G:C1WC2W R:C1PC2P E:C1XC5X C:C2IC6I J:C1CC2S             
/* PCV:IGS20_2290 OL/AL:FES2004  NONE     YN ORB:CoN CLK:CoN
*  2024 03 23 18 30  0.00000000
PC06  -1895.747054  37589.787960  19366.432590    293.672516
PC07 -12806.918683  26010.753315 -30574.821003   -887.951505
PC08 -19343.026050  35162.549723  12581.815832     37.133829
PC09   1719.454961  40376.824065  13554.048383   -661.552082
PC10  -3916.532475  27245.617356 -31636.935391     32.530891
PC11  20848.947601  12188.539443  14044.653106    474.929636
PC12  14776.954208  23352.246226  -3868.416614   -218.799219
PC13 -12059.478932  35360.761310  19432.075915    426.784428
PC14  26054.612635   2423.803043   9624.297528    473.950834
PC16  -5095.122683  35071.650817  23385.177484   -413.918765
PC19 -27619.731334   4074.613033   -485.383204   -917.632949
PC20 -21696.323464  -7431.409314 -15909.802806   -286.473461
PC21   1884.893921  15536.437697  23124.280256   -961.526904
PC22 -18074.784600  13891.931102  16120.362490    -64.365953
PC23  14726.168371 -22297.086146  -8054.890617   -775.842944
PC24  10818.003289  14596.437064 -21194.141865    950.903344
PC25  17879.848789  -6265.511814 -20508.468136    356.777021
PC26  -1821.749865  26081.259020  -9729.553486   -266.953533
PC27  -8337.634045 -23809.406202  11893.762159    288.817982
PC28   6434.869405 -16314.136140  21708.616405    220.430625
PC29 -20030.111053  -2426.256712 -19283.546742    258.509391
PC30 -20156.930995 -18821.601647  -4186.721451    -43.041622
PC32  -1963.703225 -15520.657388 -23087.727407   -588.237472
PC33  27575.518308  -4153.607236    632.719037   -961.408790
PC34  20674.478099  17890.362739   5641.399731    396.505719
PC35  -6022.198821  16493.751039 -21713.793421    404.218521
PC36 -17978.251845   5470.878565  20644.262643     28.059777
PC37   2698.281514 -26154.175540   9392.155719   -948.108339
PC38 -22753.789513  35128.332154   4562.609730    144.542710
PC39  -7481.149631  31189.606105  27553.160522     -7.686642
PC40 -18019.535712  19182.171636 -33014.128970    -62.121073
PC41  18738.818503 -13674.240207 -15439.092278   -910.826194
PC42  20387.412327   8449.679647  17106.118789   -445.631845
PC43  20447.305116   3343.382068  18693.159576     65.249906
PC44   9046.448240  23531.950748 -12019.347130    422.078493
PC45 -14707.230856  22306.287849   8008.699154    -77.031093
PC46 -11138.658978 -13833.560400  21523.552178   -134.039725
PE02  26094.110677 -10962.973024  -8706.979614    113.590194
PE03  25135.647173   -525.724375 -15610.768449   -102.308547
PE04  -9019.189147  14482.305574  24201.465430   -356.546351
PE05  26269.519878  13496.857578   1960.827693   4731.809044
PE07 -11683.948588 -19722.102048 -18722.301051   -110.551468
PE08   9732.910232 -13943.422433 -24221.916067   -243.540290
PE09  11587.313700  19619.973486  18892.137094   -381.039243
PE10   -933.380652  29018.743907  -5781.333632   -611.559217
PE11   5732.122407  28664.068655   4723.427778   3137.615341
PE12  -6885.908629  25050.227959 -14213.786950   -961.669286
PE13  -5360.814114 -28810.997154  -4101.240933    -20.665734
PE14   2033.938830 -17234.987453  19295.612793     74.736106
PE15   7147.622514 -24667.640197  14709.486708    -92.906060
PE18 -14226.109820  14506.661004 -22923.323656    468.759954
PE19 -26027.571806  -1336.555014  14048.439574   -378.009554
PE21 -19215.683225  -4988.133147  21946.605421   -585.468523
PE24    498.290490  18938.363021 -22759.092709   -667.384085
PE25  18937.997486   5330.525543 -22120.031861      2.470958
PE26 -14820.733564 -15422.254366 -20452.635161    404.910745
PE27   -846.178559 -18751.264597  22884.383262   -306.109891
PE30  18001.221928 -21206.744149  10123.318155   -124.723247
PE31 -17784.691522  21287.399243 -10324.698353    -18.987645
PE33 -15376.660043   5525.300963 -24679.404046      9.425019
PE34  15261.076601  -6168.207393  24597.818909   -101.609433
PE36  14521.664240  16067.971143  20188.071756   -203.305592
PG01  11417.941783 -13537.919564  19336.530597    175.572687
PG02  14970.203620  -3104.185914  22205.882979   -465.480731
PG03  22889.530269 -11496.813570   6636.296694    269.352411
PG04  22074.137322   -953.178060 -14821.256176    321.878380
PG05 -19877.373594    562.088120 -17824.276334   -166.475277
PG06  -5612.839276 -25499.746856  -4455.875538    355.043779
PG07   6456.926385 -21950.709852 -12574.639430    -90.991377
PG08  25461.819774   4991.379455   6543.760233     75.383805
PG09  11139.995016 -11608.994401 -21220.365082    134.797411
PG10  -2943.046195  18185.143010  19216.349084     -2.111620
PG11 -11829.647284 -18259.220566 -15243.823554   -615.539680
PG12 -23688.238208   9303.789021   7201.497681   -489.913279
PG13 -22753.859225 -13941.365851   -117.998870    636.663010
PG14   7028.232372 -19534.550942  16480.229038    358.017797
PG15 -25793.450763  -2241.006895   5887.475504    140.748474
PG16  17077.191110   5799.410340 -19979.905599   -334.248524
PG17  -2078.715457 -16959.168139  20715.638931    712.542776
PG18  -6129.747299  22617.986388 -12305.630552   -581.191443
PG19 -12055.243283 -18478.466586  14866.267007    458.069582
PG20 -11816.708015  -9839.407597 -21590.708663    382.852328
PG21  16062.525731   3622.732596  21475.661437    130.194278
PG22   -242.686984 -16983.397992  20912.753656     11.454295
PG23 -14179.269011  19937.292508  10122.512918    183.849490
PG24 -15726.484988    701.081026  21006.580738   -450.286761
PG25 -20015.147877  17166.593947  -1865.577389    492.051948
PG26   7596.006039  14280.359030 -21178.672076    175.957246
PG27  22775.764057  13327.536057  -4920.112942    -13.883372
PG28   5141.805262  26006.610711  -1684.685279   -175.366974
PG29 -13863.775825   8858.921398 -20925.852973   -604.022242
PG30   -787.182672 -26210.267058  -3038.617802   -415.641973
PG31  10311.483902  21434.590374 -11603.394690   -228.008645
PG32   6557.642311  17344.763587  19298.314275   -616.676547
PJ02 -36065.057343  20354.755804  -3241.629925     -3.228706
PJ03 -20146.429220  25380.795404 -22364.919271     -0.162560
PJ04 -27775.174273  29218.837961  18303.691881     50.619660
PR01  24661.778623   2692.147136   5908.190383     80.475464
PR02  22377.139879  -4571.086839 -11374.104365    -22.626601
PR03   7302.262755 -10242.961056 -22146.577932     96.907317
PR04 -11287.932811  -9910.538791 -20576.955332    228.852446
PR05 -23816.531785  -4503.113985  -7896.662451    128.870588
PR07  -6223.360777  10413.163451  22478.710682     78.601766
PR08  11613.401057   9920.580795  20505.171283    -74.844541
PR09 -15914.909204  15735.035634  12331.273140    176.972383
PR11   -555.090101  17894.556475 -18170.360529     30.290657
PR12  11937.619447   1069.834253 -22498.635785     38.146828
PR13  16013.660654 -13641.763815 -14447.623500    -45.582760
PR14  10788.591931 -22652.579043   4549.790012     26.253976
PR15   -513.910742 -16949.397759  19067.515459     81.108544
PR16 -11701.532401  -1199.467956  22642.388313     24.247586
PR17  -1598.387056 -19150.101106  16798.842156     71.578127
PR18 -11030.468867 -22890.140396   1886.187596    133.610714
PR19 -14442.275989 -16719.415860 -12748.189037   -270.450893
PR20  -9949.980298   3217.151514 -23258.081127   -110.242373
PR21   1537.058062  19155.592386 -16765.329630    -86.895415
PR22  10925.904425  23049.910231   -683.527440    114.238054
PR24   9969.649017  -4397.635959  23077.877501    -48.936686
PR25    725.801811  19378.388911 -16559.467098    -24.566126
PR26  10547.514580  10033.887104  20964.318984    -28.735474
EOF
